[{"OBJECT_NAME":"STARLINK-35538","OBJECT_ID":"2025-262V","EPOCH":"2026-03-09T00:56:40.358400","MEAN_MOTION":15.27634933,"ECCENTRICITY":0.0001822,"INCLINATION":43.0024,"RA_OF_ASC_NODE":300.1234,"ARG_OF_PERICENTER":268.5994,"MEAN_ANOMALY":91.4649,"EPHEMERIS_TYPE":0,"CLASSIFICATION_TYPE":"U","NORAD_CAT_ID":66475,"ELEMENT_SET_NO":999,"REV_AT_EPOCH":1880,"BSTAR":0.0011734291,"MEAN_MOTION_DOT":0.00032224,"MEAN_MOTION_DDOT":0},{"OBJECT_NAME":"KUIPER-00184","OBJECT_ID":"2025-301G","EPOCH":"2026-03-09T22:00:01.999584","MEAN_MOTION":15.32782365,"ECCENTRICITY":0.00116958,"INCLINATION":51.8667,"RA_OF_ASC_NODE":64.5953,"ARG_OF_PERICENTER":53.2996,"MEAN_ANOMALY":333.7065,"EPHEMERIS_TYPE":0,"CLASSIFICATION_TYPE":"U","NORAD_CAT_ID":67139,"ELEMENT_SET_NO":999,"REV_AT_EPOCH":554,"BSTAR":-0.036844053,"MEAN_MOTION_DOT":-0.01088594,"MEAN_MOTION_DDOT":0}]
